[{"OBJECT_NAME":"LIZZIESAT-1 (LS-1)","OBJECT_ID":"2024-043AL","EPOCH":"2026-03-09T21:24:55.126944","MEAN_MOTION":15.26635712,"ECCENTRICITY":0.00099234,"INCLINATION":97.5461,"RA_OF_ASC_NODE":203.4772,"ARG_OF_PERICENTER":229.9925,"MEAN_ANOMALY":130.0443,"EPHEMERIS_TYPE":0,"CLASSIFICATION_TYPE":"U","NORAD_CAT_ID":59132,"ELEMENT_SET_NO":999,"REV_AT_EPOCH":11178,"BSTAR":0.0002232873,"MEAN_MOTION_DOT":5.784e-5,"MEAN_MOTION_DDOT":0},{"OBJECT_NAME":"STARLINK-32635","OBJECT_ID":"2024-224S","EPOCH":"2026-03-09T07:20:14.951904","MEAN_MOTION":15.27584108,"ECCENTRICITY":4.315e-5,"INCLINATION":42.9992,"RA_OF_ASC_NODE":167.849,"ARG_OF_PERICENTER":242.1694,"MEAN_ANOMALY":117.9114,"EPHEMERIS_TYPE":0,"CLASSIFICATION_TYPE":"U","NORAD_CAT_ID":62155,"ELEMENT_SET_NO":999,"REV_AT_EPOCH":7217,"BSTAR":0.00091923903,"MEAN_MOTION_DOT":0.00025123,"MEAN_MOTION_DDOT":0}]
